ONEWEB-0534             
1 55797U 23029B   26165.57816991  .00000085  00000+0  17635-3 0  9992
2 55797  87.9184 274.9898 0001868 100.0794 260.0551 13.20772143160807
ONEWEB-0556             
1 55798U 23029C   26165.58490460  .00000020  00000+0  16849-4 0  9999
2 55798  87.9182 274.9879 0001693  74.3636 285.7685 13.20773843160809
ONEWEB-0562             
1 55799U 23029D   26165.26840609  .00000031  00000+0  44278-4 0  9998
2 55799  87.9184 275.0319 0002390  80.2910 279.8493 13.20770738160765
ONEWEB-0563             
1 55800U 23029E   26165.56639172  .00000174  00000+0  39497-3 0  9999
2 55800  87.9185 275.0030 0001750 102.0765 258.0565 13.20772533160796
ONEWEB-0564             
1 55801U 23029F   26165.55965846  .00000130  00000+0  28678-3 0  9990
2 55801  87.9184 274.9777 0002200  90.8390 269.2996 13.20771326160804
ONEWEB-0638             
1 55802U 23029G   26165.57673653  .00004260  00000+0  11453-1 0  9994
2 55802  87.8953 290.2721 0001961  83.1579 276.9774 13.14484504159051
ONEWEB-0639             
1 55803U 23029H   26165.45414654 -.00000031  00000+0 -10950-3 0  9993
2 55803  87.9167 305.5205 0001152 125.7305 234.3935 13.19725533158544
ONEWEB-0640             
1 55804U 23029J   26165.35787281 -.00000029  00000+0 -11356-3 0  9990
2 55804  87.8953 290.3067 0001420  81.2943 278.8347 13.14502712159049
ONEWEB-0641             
1 55805U 23029K   26165.37358272  .00000036  00000+0  57115-4 0  9997
2 55805  87.9175 305.5254 0001737 102.4203 257.7124 13.19725172158545
ONEWEB-0642             
1 55806U 23029L   26165.36885092  .00000050  00000+0  93321-4 0  9997
2 55806  87.9169 305.5385 0001449 124.6226 235.5044 13.19724858158539
ONEWEB-0643             
1 55807U 23029M   26165.63222133  .00000274  00000+0  70456-3 0  9990
2 55807  87.8952 290.2393 0001831 121.5197 238.6112 13.14503958159055
ONEWEB-0644             
1 55808U 23029N   26165.66737406  .00000019  00000+0  16093-4 0  9993
2 55808  87.9166 305.4804 0001678 108.6151 251.5165 13.19724369158579
ONEWEB-0645             
1 55809U 23029P   26165.61366828  .00000041  00000+0  70416-4 0  9999
2 55809  87.9166 305.4881 0001385  97.7400 262.3890 13.19724639158569
ONEWEB-0646             
1 55810U 23029Q   26165.63105555  .00000099  00000+0  21460-3 0  9998
2 55810  87.9165 305.4848 0001725 106.9457 253.1865 13.19725724158551
ONEWEB-0648             
1 55811U 23029R   26165.60048161 -.00000168  00000+0 -48831-3 0  9995
2 55811  87.8965 290.2191 0001053 115.2372 244.8867 13.14501372159055
ONEWEB-0649             
1 55812U 23029S   26165.65631772  .00000003  00000+0 -25105-4 0  9994
2 55812  87.9167 305.4776 0001585 100.2196 259.9116 13.19725292158593
ONEWEB-0650             
1 55813U 23029T   26165.42411759  .00000058  00000+0  11241-3 0  9995
2 55813  87.9166 305.5264 0001502 113.9680 246.1610 13.19725073158532
ONEWEB-0652             
1 55814U 23029U   26165.58145342  .00000167  00000+0  41642-3 0  9994
2 55814  87.8960 290.2301 0002048  98.8675 261.2687 13.14504986159027
ONEWEB-0653             
1 55815U 23029V   26165.64172411  .00000298  00000+0  76929-3 0  9990
2 55815  87.8961 290.2159 0001888  97.4754 262.6590 13.14503884159062
ONEWEB-0654             
1 55816U 23029W   26165.63696831  .00000283  00000+0  72823-3 0  9990
2 55816  87.8960 290.2131 0002150  92.8431 267.2945 13.14503952159089
ONEWEB-0656             
1 55817U 23029X   26165.55292191  .00000028  00000+0  36184-4 0  9991
2 55817  87.9195 274.9546 0002308  92.9972 267.1426 13.20773053160809
ONEWEB-0657             
1 55818U 23029Y   26165.64684939  .00000089  00000+0  18988-3 0  9995
2 55818  87.9167 305.4806 0002515 103.9890 256.1523 13.19725247158577
ONEWEB-0658             
1 55819U 23029Z   26165.64210895  .00000091  00000+0  19396-3 0  9999
2 55819  87.9175 305.4567 0001638 110.0920 250.0389 13.19724820158589
ONEWEB-0660             
1 55820U 23029AA  26165.61476467 -.00000013  00000+0 -69776-4 0  9991
2 55820  87.8970 290.2105 0001574  96.2587 263.8723 13.14504535159067
ONEWEB-0661             
1 55821U 23029AB  26165.57354633  .00000249  00000+0  63775-3 0  9998
2 55821  87.8954 290.2639 0001656  93.1279 267.0041 13.14502602159047
ONEWEB-0662             
1 55822U 23029AC  26165.38007346 -.00000158  00000+0 -46090-3 0  9996
2 55822  87.8950 290.3088 0001576  96.7180 263.4129 13.14503002159068
ONEWEB-0663             
1 55823U 23029AD  26165.58681181  .00000050  00000+0  90854-4 0  9991
2 55823  87.9197 275.0196 0001529 104.9183 255.2120 13.20869395160807
ONEWEB-0664             
1 55824U 23029AE  26165.53944971  .00000093  00000+0  19635-3 0  9990
2 55824  87.9181 275.0103 0001831  86.0994 274.0348 13.20770890160795
ONEWEB-0665             
1 55825U 23029AF  26165.64649295  .00000194  00000+0  48786-3 0  9995
2 55825  87.8954 290.2302 0001545 100.6319 259.4985 13.14503206159070
ONEWEB-0666             
1 55826U 23029AG  26165.53271753  .00000000  00000+0 -32061-4 0  9991
2 55826  87.9181 275.0016 0002653 106.5231 253.6194 13.20771700160800
