OBJECT_NAME,OBJECT_ID,EPOCH,MEAN_MOTION,ECCENTRICITY,INCLINATION,RA_OF_ASC_NODE,ARG_OF_PERICENTER,MEAN_ANOMALY,EPHEMERIS_TYPE,CLASSIFICATION_TYPE,NORAD_CAT_ID,ELEMENT_SET_NO,REV_AT_EPOCH,BSTAR,MEAN_MOTION_DOT,MEAN_MOTION_DDOT
ONEWEB-0534,2023-029B,2026-06-14T13:52:33.880224,13.20772143,.00018687,87.9184,274.9898,100.0794,260.0551,0,U,55797,999,16080,.17635013E-3,.85E-6,0
ONEWEB-0556,2023-029C,2026-06-14T14:02:15.757440,13.20773843,.0001693,87.9182,274.9879,74.3636,285.7685,0,U,55798,999,16080,.16848648E-4,.2E-6,0
ONEWEB-0562,2023-029D,2026-06-14T06:26:30.286176,13.20770738,.000239,87.9184,275.0319,80.2910,279.8493,0,U,55799,999,16076,.44278E-4,.31E-6,0
ONEWEB-0563,2023-029E,2026-06-14T13:35:36.244608,13.20772533,.00017502,87.9185,275.0030,102.0765,258.0565,0,U,55800,999,16079,.39497331E-3,.174E-5,0
ONEWEB-0564,2023-029F,2026-06-14T13:25:54.490944,13.20771326,.00022003,87.9184,274.9777,90.8390,269.2996,0,U,55801,999,16080,.28677967E-3,.13E-5,0
ONEWEB-0638,2023-029G,2026-06-14T13:50:30.036192,13.14484504,.00019613,87.8953,290.2721,83.1579,276.9774,0,U,55802,999,15905,.11452908E-1,.426E-4,0
ONEWEB-0639,2023-029H,2026-06-14T10:53:58.261056,13.19725533,.0001152,87.9167,305.5205,125.7305,234.3935,0,U,55803,999,15854,-.10949959E-3,-.31E-6,0
ONEWEB-0640,2023-029J,2026-06-14T08:35:20.210784,13.14502712,.00014208,87.8953,290.3067,81.2943,278.8347,0,U,55804,999,15904,-.1135558E-3,-.29E-6,0
ONEWEB-0641,2023-029K,2026-06-14T08:57:57.547008,13.19725172,.00017379,87.9175,305.5254,102.4203,257.7124,0,U,55805,999,15854,.57115209E-4,.36E-6,0
ONEWEB-0642,2023-029L,2026-06-14T08:51:08.719488,13.19724858,.00014493,87.9169,305.5385,124.6226,235.5044,0,U,55806,999,15853,.93320717E-4,.5E-6,0
ONEWEB-0643,2023-029M,2026-06-14T15:10:23.922912,13.14503958,.00018318,87.8952,290.2393,121.5197,238.6112,0,U,55807,999,15905,.70455831E-3,.274E-5,0
ONEWEB-0644,2023-029N,2026-06-14T16:01:01.118784,13.19724369,.00016786,87.9166,305.4804,108.6151,251.5165,0,U,55808,999,15857,.16093062E-4,.19E-6,0
ONEWEB-0645,2023-029P,2026-06-14T14:43:40.939392,13.19724639,.00013851,87.9166,305.4881,97.7400,262.3890,0,U,55809,999,15856,.70416208E-4,.41E-6,0
ONEWEB-0646,2023-029Q,2026-06-14T15:08:43.199520,13.19725724,.0001725,87.9165,305.4848,106.9457,253.1865,0,U,55810,999,15855,.21460462E-3,.99E-6,0
ONEWEB-0648,2023-029R,2026-06-14T14:24:41.611104,13.14501372,.00010539,87.8965,290.2191,115.2372,244.8867,0,U,55811,999,15905,-.48831209E-3,-.168E-5,0
ONEWEB-0649,2023-029S,2026-06-14T15:45:05.851008,13.19725292,.00015857,87.9167,305.4776,100.2196,259.9116,0,U,55812,999,15859,-.25105388E-4,.3E-7,0
ONEWEB-0650,2023-029T,2026-06-14T10:10:43.759776,13.19725073,.00015026,87.9166,305.5264,113.9680,246.1610,0,U,55813,999,15853,.11240658E-3,.58E-6,0
ONEWEB-0652,2023-029U,2026-06-14T13:57:17.575488,13.14504986,.00020483,87.8960,290.2301,98.8675,261.2687,0,U,55814,999,15902,.4164215E-3,.167E-5,0
ONEWEB-0653,2023-029V,2026-06-14T15:24:04.963104,13.14503884,.00018888,87.8961,290.2159,97.4754,262.6590,0,U,55815,999,15906,.76929197E-3,.298E-5,0
ONEWEB-0654,2023-029W,2026-06-14T15:17:14.061984,13.14503952,.00021505,87.8960,290.2131,92.8431,267.2945,0,U,55816,999,15908,.72823243E-3,.283E-5,0
ONEWEB-0656,2023-029X,2026-06-14T13:16:12.453024,13.20773053,.00023085,87.9195,274.9546,92.9972,267.1426,0,U,55817,999,16080,.36184306E-4,.28E-6,0
ONEWEB-0657,2023-029Y,2026-06-14T15:31:27.787296,13.19725247,.00025151,87.9167,305.4806,103.9890,256.1523,0,U,55818,999,15857,.18988229E-3,.89E-6,0
ONEWEB-0658,2023-029Z,2026-06-14T15:24:38.213280,13.19724820,.00016383,87.9175,305.4567,110.0920,250.0389,0,U,55819,999,15858,.19396346E-3,.91E-6,0
ONEWEB-0660,2023-029AA,2026-06-14T14:45:15.667488,13.14504535,.00015748,87.8970,290.2105,96.2587,263.8723,0,U,55820,999,15906,-.69775515E-4,-.13E-6,0
ONEWEB-0661,2023-029AB,2026-06-14T13:45:54.402912,13.14502602,.00016566,87.8954,290.2639,93.1279,267.0041,0,U,55821,999,15904,.63775401E-3,.249E-5,0
ONEWEB-0662,2023-029AC,2026-06-14T09:07:18.346944,13.14503002,.00015769,87.8950,290.3088,96.7180,263.4129,0,U,55822,999,15906,-.4608961E-3,-.158E-5,0
ONEWEB-0663,2023-029AD,2026-06-14T14:05:00.540384,13.20869395,.00015294,87.9197,275.0196,104.9183,255.2120,0,U,55823,999,16080,.90854204E-4,.5E-6,0
ONEWEB-0664,2023-029AE,2026-06-14T12:56:48.454944,13.20770890,.00018317,87.9181,275.0103,86.0994,274.0348,0,U,55824,999,16079,.19634992E-3,.93E-6,0
ONEWEB-0665,2023-029AF,2026-06-14T15:30:56.990880,13.14503206,.00015457,87.8954,290.2302,100.6319,259.4985,0,U,55825,999,15907,.48786041E-3,.194E-5,0
ONEWEB-0666,2023-029AG,2026-06-14T12:47:06.794592,13.20771700,.00026531,87.9181,275.0016,106.5231,253.6194,0,U,55826,999,16080,-.32060715E-4,0,0
